[{"OBJECT_NAME":"GHGSAT-C3","OBJECT_ID":"2022-057F","EPOCH":"2026-03-09T22:30:13.234752","MEAN_MOTION":15.32943835,"ECCENTRICITY":0.00073198,"INCLINATION":97.6431,"RA_OF_ASC_NODE":211.0668,"ARG_OF_PERICENTER":112.4588,"MEAN_ANOMALY":247.7429,"EPHEMERIS_TYPE":0,"CLASSIFICATION_TYPE":"U","NORAD_CAT_ID":52737,"ELEMENT_SET_NO":999,"REV_AT_EPOCH":21032,"BSTAR":0.00031249517,"MEAN_MOTION_DOT":9.871e-5,"MEAN_MOTION_DDOT":0},{"OBJECT_NAME":"STARLINK-35802","OBJECT_ID":"2025-247AA","EPOCH":"2026-03-09T14:34:30.306144","MEAN_MOTION":15.30201194,"ECCENTRICITY":0.0001882,"INCLINATION":53.1598,"RA_OF_ASC_NODE":191.636,"ARG_OF_PERICENTER":32.231,"MEAN_ANOMALY":327.8805,"EPHEMERIS_TYPE":0,"CLASSIFICATION_TYPE":"U","NORAD_CAT_ID":66289,"ELEMENT_SET_NO":999,"REV_AT_EPOCH":2102,"BSTAR":0.0011903,"MEAN_MOTION_DOT":0.00035061,"MEAN_MOTION_DDOT":0}]
